{"type": "FeatureCollection", "features": [ {"type": "Feature", "properties": {"norad_id": 37216, "name": "COSMO-SKYMED 4", "group": "resource", "lat": 7.930408684675378, "lon": 1.40539600177021, "alt_km": 624.4658780497866, "timestamp": "2025-12-25T03:55:55.963069+00:00", "meta": {"OBJECT_NAME": "COSMO-SKYMED 4", "OBJECT_ID": "2010-060A", "EPOCH": "2025-12-24T20:40:42.056832", "MEAN_MOTION": 14.82159236, "ECCENTRICITY": 0.0001357, "INCLINATION": 97.8803, "RA_OF_ASC_NODE": 180.0023, "ARG_OF_PERICENTER": 81.7751, "MEAN_ANOMALY": 278.3616, "EPHEMERIS_TYPE": 0, "CLASSIFICATION_TYPE": "U", "NORAD_CAT_ID": 37216, "ELEMENT_SET_NO": 999, "REV_AT_EPOCH": 81874, "BSTAR": 0.00011591, "MEAN_MOTION_DOT": 8.71e-06, "MEAN_MOTION_DDOT": 0}, "tle": {"line1": "1 37216U 10060A   25358.86159788  .00000871  00000+0  11591-3 0  9996", "line2": "2 37216  97.8803 180.0023 0001357  81.7751 278.3616 14.82159236818747"}}, "geometry": {"type": "Point", "coordinates": [1.40539600177021, 7.930408684675378]}}, {"type": "Feature", "properties": {"norad_id": 37387, "name": "RESOURCESAT-2", "group": "resource", "lat": -46.33049415955086, "lon": 71.98263835035509, "alt_km": 824.2933266178798, "timestamp": "2025-12-25T03:55:55.963080+00:00", "meta": {"OBJECT_NAME": "RESOURCESAT-2", "OBJECT_ID": "2011-015A", "EPOCH": "2025-12-24T19:42:25.118784", "MEAN_MOTION": 14.21601829, "ECCENTRICITY": 0.000583, "INCLINATION": 98.786, "RA_OF_ASC_NODE": 62.3179, "ARG_OF_PERICENTER": 9.5682, "MEAN_ANOMALY": 350.5605, "EPHEMERIS_TYPE": 0, "CLASSIFICATION_TYPE": "U", "NORAD_CAT_ID": 37387, "ELEMENT_SET_NO": 999, "REV_AT_EPOCH": 76140, "BSTAR": 8.0077e-05, "MEAN_MOTION_DOT": 1.31e-06, "MEAN_MOTION_DDOT": 0}, "tle": {"line1": "1 37387U 11015A   25358.82112406  .00000131  00000+0  80077-4 0  9993", "line2": "2 37387  98.7860  62.3179 0005830   9.5682 350.5605 14.21601829761408"}}, "geometry": {"type": "Point", "coordinates": [71.98263835035509, -46.33049415955086]}}, {"type": "Feature", "properties": {"norad_id": 37781, "name": "HAIYANG-2A", "group": "resource", "lat": -69.19483519012503, "lon": 154.24732635350225, "alt_km": 976.4046878924382, "timestamp": "2025-12-25T03:55:55.963090+00:00", "meta": {"OBJECT_NAME": "HAIYANG-2A", "OBJECT_ID": "2011-043A", "EPOCH": "2025-12-24T21:29:33.565632", "MEAN_MOTION": 13.78836366, "ECCENTRICITY": 0.0001596, "INCLINATION": 99.3377, "RA_OF_ASC_NODE": 359.6424, "ARG_OF_PERICENTER": 67.676, "MEAN_ANOMALY": 292.4561, "EPHEMERIS_TYPE": 0, "CLASSIFICATION_TYPE": "U", "NORAD_CAT_ID": 37781, "ELEMENT_SET_NO": 999, "REV_AT_EPOCH": 72266, "BSTAR": 5.1281e-05, "MEAN_MOTION_DOT": 8e-08, "MEAN_MOTION_DDOT": 0}, "tle": {"line1": "1 37781U 11043A   25358.89552738  .00000008  00000+0  51281-4 0  9993", "line2": "2 37781  99.3377 359.6424 0001596  67.6760 292.4561 13.78836366722665"}}, "geometry": {"type": "Point", "coordinates": [154.24732635350225, -69.19483519012503]}}, {"type": "Feature", "properties": {"norad_id": 37791, "name": "RASAT", "group": "resource", "lat": 25.3459481731363, "lon": 84.38614329225041, "alt_km": 651.9088246959363, "timestamp": "2025-12-25T03:55:55.963101+00:00", "meta": {"OBJECT_NAME": "RASAT", "OBJECT_ID": "2011-044D", "EPOCH": "2025-12-24T20:20:25.588896", "MEAN_MOTION": 14.67925319, "ECCENTRICITY": 0.0021315, "INCLINATION": 98.0644, "RA_OF_ASC_NODE": 87.9254, "ARG_OF_PERICENTER": 28.4371, "MEAN_ANOMALY": 126.6712, "EPHEMERIS_TYPE": 0, "CLASSIFICATION_TYPE": "U", "NORAD_CAT_ID": 37791, "ELEMENT_SET_NO": 999, "REV_AT_EPOCH": 76760, "BSTAR": 0.00011876, "MEAN_MOTION_DOT": 6.33e-06, "MEAN_MOTION_DDOT": 0}, "tle": {"line1": "1 37791U 11044D   25358.84751839  .00000633  00000+0  11876-3 0  9992", "line2": "2 37791  98.0644  87.9254 0021315  28.4371 126.6712 14.67925319767600"}}, "geometry": {"type": "Point", "coordinates": [84.38614329225041, 25.3459481731363]}}, {"type": "Feature", "properties": {"norad_id": 37841, "name": "SRMSAT", "group": "resource", "lat": -5.61214373497818, "lon": 17.064285414969333, "alt_km": 854.9397371728192, "timestamp": "2025-12-25T03:55:55.963111+00:00", "meta": {"OBJECT_NAME": "SRMSAT", "OBJECT_ID": "2011-058D", "EPOCH": "2025-12-24T18:34:49.623744", "MEAN_MOTION": 14.11515378, "ECCENTRICITY": 0.0011994, "INCLINATION": 19.973, "RA_OF_ASC_NODE": 35.1176, "ARG_OF_PERICENTER": 85.055, "MEAN_ANOMALY": 74.1634, "EPHEMERIS_TYPE": 0, "CLASSIFICATION_TYPE": "U", "NORAD_CAT_ID": 37841, "ELEMENT_SET_NO": 999, "REV_AT_EPOCH": 73314, "BSTAR": 8.7141e-05, "MEAN_MOTION_DOT": 4.25e-06, "MEAN_MOTION_DDOT": 0}, "tle": {"line1": "1 37841U 11058D   25358.77418546  .00000425  00000+0  87141-4 0  9998", "line2": "2 37841  19.9730  35.1176 0011994  85.0550  74.1634 14.11515378733143"}}, "geometry": {"type": "Point", "coordinates": [17.064285414969333, -5.61214373497818]}}, {"type": "Feature", "properties": {"norad_id": 38012, "name": "PLEIADES 1A", "group": "resource", "lat": 55.72703352847309, "lon": -96.07331898084334, "alt_km": 691.9688808860028, "timestamp": "2025-12-25T03:55:55.963122+00:00", "meta": {"OBJECT_NAME": "PLEIADES 1A", "OBJECT_ID": "2011-076F", "EPOCH": "2025-12-24T21:04:50.082816", "MEAN_MOTION": 14.58572157, "ECCENTRICITY": 0.0001088, "INCLINATION": 98.1808, "RA_OF_ASC_NODE": 71.459, "ARG_OF_PERICENTER": 74.5342, "MEAN_ANOMALY": 350.6418, "EPHEMERIS_TYPE": 0, "CLASSIFICATION_TYPE": "U", "NORAD_CAT_ID": 38012, "ELEMENT_SET_NO": 999, "REV_AT_EPOCH": 74658, "BSTAR": 0.00010251, "MEAN_MOTION_DOT": 4.31e-06, "MEAN_MOTION_DDOT": 0}, "tle": {"line1": "1 38012U 11076F   25358.87835744  .00000431  00000+0  10251-3 0  9997", "line2": "2 38012  98.1808  71.4590 0001088  74.5342 350.6418 14.58572157746580"}}, "geometry": {"type": "Point", "coordinates": [-96.07331898084334, 55.72703352847309]}}, {"type": "Feature", "properties": {"norad_id": 38038, "name": "ZIYUAN 1-02C (ZY 1-02C)", "group": "resource", "lat": -13.639242750152366, "lon": -117.11494863264781, "alt_km": 769.3697649663791, "timestamp": "2025-12-25T03:55:55.963132+00:00", "meta": {"OBJECT_NAME": "ZIYUAN 1-02C (ZY 1-02C)", "OBJECT_ID": "2011-079A", "EPOCH": "2025-12-24T20:57:12.066912", "MEAN_MOTION": 14.38025041, "ECCENTRICITY": 0.0007548, "INCLINATION": 98.4315, "RA_OF_ASC_NODE": 64.6623, "ARG_OF_PERICENTER": 106.6418, "MEAN_ANOMALY": 22.4481, "EPHEMERIS_TYPE": 0, "CLASSIFICATION_TYPE": "U", "NORAD_CAT_ID": 38038, "ELEMENT_SET_NO": 999, "REV_AT_EPOCH": 73415, "BSTAR": 0.00017349, "MEAN_MOTION_DOT": 4.82e-06, "MEAN_MOTION_DDOT": 0}, "tle": {"line1": "1 38038U 11079A   25358.87305633  .00000482  00000+0  17349-3 0  9998", "line2": "2 38038  98.4315  64.6623 0007548 106.6418  22.4481 14.38025041734150"}}, "geometry": {"type": "Point", "coordinates": [-117.11494863264781, -13.639242750152366]}}, {"type": "Feature", "properties": {"norad_id": 38338, "name": "ARIRANG-3 (KOMPSAT-3)", "group": "resource", "lat": 17.969082538785184, "lon": 136.57295680748075, "alt_km": 690.2259276214891, "timestamp": "2025-12-25T03:55:55.963143+00:00", "meta": {"OBJECT_NAME": "ARIRANG-3 (KOMPSAT-3)", "OBJECT_ID": "2012-025B", "EPOCH": "2025-12-24T20:37:22.353600", "MEAN_MOTION": 14.6172783, "ECCENTRICITY": 0.0004708, "INCLINATION": 98.334, "RA_OF_ASC_NODE": 313.5411, "ARG_OF_PERICENTER": 295.179, "MEAN_ANOMALY": 64.8922, "EPHEMERIS_TYPE": 0, "CLASSIFICATION_TYPE": "U", "NORAD_CAT_ID": 38338, "ELEMENT_SET_NO": 999, "REV_AT_EPOCH": 72587, "BSTAR": 0.0001234, "MEAN_MOTION_DOT": 5.66e-06, "MEAN_MOTION_DDOT": 0}, "tle": {"line1": "1 38338U 12025B   25358.85928650  .00000566  00000+0  12340-3 0  9990", "line2": "2 38338  98.3340 313.5411 0004708 295.1790  64.8922 14.61727830725873"}}, "geometry": {"type": "Point", "coordinates": [136.57295680748075, 17.969082538785184]}}, {"type": "Feature", "properties": {"norad_id": 38709, "name": "EXACTVIEW-1 (ADS-1B)", "group": "resource", "lat": -43.37031168370073, "lon": 116.38956578211283, "alt_km": 808.1053034767174, "timestamp": "2025-12-25T03:55:55.963154+00:00", "meta": {"OBJECT_NAME": "EXACTVIEW-1 (ADS-1B)", "OBJECT_ID": "2012-039C", "EPOCH": "2025-12-24T19:42:42.645024", "MEAN_MOTION": 14.24912629, "ECCENTRICITY": 0.0010143, "INCLINATION": 98.9638, "RA_OF_ASC_NODE": 107.4649, "ARG_OF_PERICENTER": 317.9424, "MEAN_ANOMALY": 42.0975, "EPHEMERIS_TYPE": 0, "CLASSIFICATION_TYPE": "U", "NORAD_CAT_ID": 38709, "ELEMENT_SET_NO": 999, "REV_AT_EPOCH": 69787, "BSTAR": 8.4451e-05, "MEAN_MOTION_DOT": 1.51e-06, "MEAN_MOTION_DDOT": 0}, "tle": {"line1": "1 38709U 12039C   25358.82132691  .00000151  00000+0  84451-4 0  9999", "line2": "2 38709  98.9638 107.4649 0010143 317.9424  42.0975 14.24912629697876"}}, "geometry": {"type": "Point", "coordinates": [116.38956578211283, -43.37031168370073]}}, {"type": "Feature", "properties": {"norad_id": 38755, "name": "SPOT 6", "group": "resource", "lat": 45.930701906624876, "lon": 55.1991968822992, "alt_km": 693.1210977230976, "timestamp": "2025-12-25T03:55:55.963164+00:00", "meta": {"OBJECT_NAME": "SPOT 6", "OBJECT_ID": "2012-047A", "EPOCH": "2025-12-24T19:29:14.349696", "MEAN_MOTION": 14.58542159, "ECCENTRICITY": 0.0001249, "INCLINATION": 98.1555, "RA_OF_ASC_NODE": 63.3731, "ARG_OF_PERICENTER": 77.3096, "MEAN_ANOMALY": 282.8243, "EPHEMERIS_TYPE": 0, "CLASSIFICATION_TYPE": "U", "NORAD_CAT_ID": 38755, "ELEMENT_SET_NO": 999, "REV_AT_EPOCH": 70763, "BSTAR": 7.7899e-05, "MEAN_MOTION_DOT": 3.17e-06, "MEAN_MOTION_DDOT": 0}, "tle": {"line1": "1 38755U 12047A   25358.81197164  .00000317  00000+0  77899-4 0  9996", "line2": "2 38755  98.1555  63.3731 0001249  77.3096 282.8243 14.58542159707630"}}, "geometry": {"type": "Point", "coordinates": [55.1991968822992, 45.930701906624876]}}]}